*******************************************************************************
Ephemeris / WWW_USER Fri Mar  7 11:14:48 2025 Pasadena, USA      / Horizons    
*******************************************************************************
Target body name: (2018 VX1)                      {source: JPL#7}
Center body name: Earth (399)                     {source: DE441}
Center-site name: Mauna Kea
*******************************************************************************
Start time      : A.D. 2018-Aug-02 05:08:00.0000 UT      
Stop  time      : A.D. 2018-Aug-02 15:48:00.0000 UT      
Step-size       : 1 minutes
*******************************************************************************
Target pole/equ : undefined
Target radii    : undefined                                                    
Center geodetic : 204.5278, 19.8260847, 4.21024   {E-lon(deg),Lat(deg),Alt(km)}
Center cylindric: 204.5278, 6006.35451, 2151.0229 {E-lon(deg),Dxy(km),Dz(km)}
Center pole/equ : ITRF93                          {East-longitude positive}
Center radii    : 6378.137, 6378.137, 6356.752 km {Equator_a, b, pole_c}       
Target primary  : Sun
Vis. interferer : MOON (R_eq= 1737.400) km        {source: DE441}
Rel. light bend : Sun                             {source: DE441}
Rel. lght bnd GM: 1.3271E+11 km^3/s^2                                          
Small-body perts: Yes                             {source: SB441-N16}
Atmos refraction: NO (AIRLESS)
RA format       : HMS
Time format     : CAL 
Calendar mode   : Mixed Julian/Gregorian
RTS-only print  : NO       
EOP file        : eop.250306.p250602                                           
EOP coverage    : DATA-BASED 1962-JAN-20 TO 2025-MAR-06. PREDICTS-> 2025-JUN-01
Units conversion: 1 au= 149597870.700 km, c= 299792.458 km/s, 1 day= 86400.0 s 
Table cut-offs 1: Elevation (-90.0deg=NO ),Airmass (>38.000=NO), Daylight (YES)
Table cut-offs 2: Solar elongation (  0.0,180.0=NO ),Local Hour Angle( 0.0=NO )
Table cut-offs 3: RA/DEC angular rate (     0.0=NO )                           
*******************************************************************************
Initial IAU76/J2000 heliocentric ecliptic osculating elements (au, days, deg.):
  EPOCH=  2458429.5 ! 2018-Nov-07.00 (TDB)         Residual RMS= .34243        
   EC= .3094465550301519   QR= .9449639043218054   TP= 2458464.0659233886      
   OM= 45.67874041641947   W=  38.97310343924259   IN= 3.356915226222919       
  Equivalent ICRF heliocentric cartesian coordinates (au, au/d):
   X= 7.224620352366717E-01  Y= 6.383229877646874E-01  Z= 2.747435985069854E-01
  VX=-1.546092850205216E-02 VY= 1.016746642579675E-02 VZ= 5.632057443641291E-03
Asteroid physical parameters (km, seconds, rotational period in hours):        
   GM= n.a.                RAD= n.a.               ROTPER= n.a.                
   H= 27.5                 G= .150                 B-V= n.a.                   
                           ALBEDO= n.a.            STYP= n.a.                  
*******************************************************************************
 Date__(UT)__HR:MN     R.A._________(ICRF)_________DEC
******************************************************
$$SOE
 2018-Aug-02 05:08 C   00 28 15.526744 -05 43 54.45558
 2018-Aug-02 05:09 C   00 28 15.588292 -05 43 54.32499
 2018-Aug-02 05:10 C   00 28 15.649827 -05 43 54.19442
 2018-Aug-02 05:11 C   00 28 15.711348 -05 43 54.06388
 2018-Aug-02 05:12 C   00 28 15.772856 -05 43 53.93337
 2018-Aug-02 05:13 C   00 28 15.834351 -05 43 53.80287
 2018-Aug-02 05:14 C   00 28 15.895832 -05 43 53.67240
 2018-Aug-02 05:15 C   00 28 15.957300 -05 43 53.54195
 2018-Aug-02 05:16 C   00 28 16.018754 -05 43 53.41153
 2018-Aug-02 05:17 C   00 28 16.080195 -05 43 53.28112
 2018-Aug-02 05:18 C   00 28 16.141622 -05 43 53.15075
 2018-Aug-02 05:19 C   00 28 16.203035 -05 43 53.02039
 2018-Aug-02 05:20 C   00 28 16.264434 -05 43 52.89005
 2018-Aug-02 05:21 C   00 28 16.325819 -05 43 52.75974
 2018-Aug-02 05:22 N   00 28 16.387191 -05 43 52.62945
 2018-Aug-02 05:23 N   00 28 16.448548 -05 43 52.49919
 2018-Aug-02 05:24 N   00 28 16.509891 -05 43 52.36894
 2018-Aug-02 05:25 N   00 28 16.571221 -05 43 52.23872
 2018-Aug-02 05:26 N   00 28 16.632536 -05 43 52.10852
 2018-Aug-02 05:27 N   00 28 16.693837 -05 43 51.97834
 2018-Aug-02 05:28 N   00 28 16.755124 -05 43 51.84819
 2018-Aug-02 05:29 N   00 28 16.816396 -05 43 51.71805
 2018-Aug-02 05:30 N   00 28 16.877654 -05 43 51.58794
 2018-Aug-02 05:31 N   00 28 16.938898 -05 43 51.45785
 2018-Aug-02 05:32 N   00 28 17.000127 -05 43 51.32778
 2018-Aug-02 05:33 N   00 28 17.061342 -05 43 51.19773
 2018-Aug-02 05:34 N   00 28 17.122542 -05 43 51.06771
 2018-Aug-02 05:35 N   00 28 17.183728 -05 43 50.93770
 2018-Aug-02 05:36 N   00 28 17.244899 -05 43 50.80772
 2018-Aug-02 05:37 N   00 28 17.306055 -05 43 50.67775
 2018-Aug-02 05:38 N   00 28 17.367197 -05 43 50.54781
 2018-Aug-02 05:39 N   00 28 17.428323 -05 43 50.41789
 2018-Aug-02 05:40 N   00 28 17.489435 -05 43 50.28799
 2018-Aug-02 05:41 N   00 28 17.550532 -05 43 50.15811
 2018-Aug-02 05:42 N   00 28 17.611614 -05 43 50.02825
 2018-Aug-02 05:43 N   00 28 17.672681 -05 43 49.89841
 2018-Aug-02 05:44 N   00 28 17.733733 -05 43 49.76860
 2018-Aug-02 05:45 N   00 28 17.794770 -05 43 49.63880
 2018-Aug-02 05:46 N   00 28 17.855792 -05 43 49.50902
 2018-Aug-02 05:47 N   00 28 17.916799 -05 43 49.37927
 2018-Aug-02 05:48 N   00 28 17.977790 -05 43 49.24953
 2018-Aug-02 05:49 N   00 28 18.038766 -05 43 49.11981
 2018-Aug-02 05:50 A   00 28 18.099727 -05 43 48.99012
 2018-Aug-02 05:51 A   00 28 18.160672 -05 43 48.86044
 2018-Aug-02 05:52 A   00 28 18.221602 -05 43 48.73078
 2018-Aug-02 05:53 A   00 28 18.282517 -05 43 48.60114
 2018-Aug-02 05:54 A   00 28 18.343416 -05 43 48.47153
 2018-Aug-02 05:55 A   00 28 18.404299 -05 43 48.34193
 2018-Aug-02 05:56 A   00 28 18.465167 -05 43 48.21235
 2018-Aug-02 05:57 A   00 28 18.526020 -05 43 48.08279
 2018-Aug-02 05:58 A   00 28 18.586856 -05 43 47.95325
 2018-Aug-02 05:59 A   00 28 18.647677 -05 43 47.82373
 2018-Aug-02 06:00 A   00 28 18.708482 -05 43 47.69422
 2018-Aug-02 06:01 A   00 28 18.769271 -05 43 47.56474
 2018-Aug-02 06:02 A   00 28 18.830045 -05 43 47.43527
 2018-Aug-02 06:03 A   00 28 18.890802 -05 43 47.30583
 2018-Aug-02 06:04 A   00 28 18.951544 -05 43 47.17640
 2018-Aug-02 06:05 A   00 28 19.012269 -05 43 47.04699
 2018-Aug-02 06:06 A   00 28 19.072979 -05 43 46.91760
 2018-Aug-02 06:07 A   00 28 19.133672 -05 43 46.78822
 2018-Aug-02 06:08 A   00 28 19.194350 -05 43 46.65887
 2018-Aug-02 06:09 A   00 28 19.255011 -05 43 46.52953
 2018-Aug-02 06:10 A   00 28 19.315656 -05 43 46.40021
 2018-Aug-02 06:11 A   00 28 19.376285 -05 43 46.27091
 2018-Aug-02 06:12 A   00 28 19.436898 -05 43 46.14163
 2018-Aug-02 06:13 A   00 28 19.497494 -05 43 46.01236
 2018-Aug-02 06:14 A   00 28 19.558074 -05 43 45.88311
 2018-Aug-02 06:15 A   00 28 19.618637 -05 43 45.75388
 2018-Aug-02 06:16 A   00 28 19.679184 -05 43 45.62467
 2018-Aug-02 06:17 A   00 28 19.739715 -05 43 45.49547
 2018-Aug-02 06:18     00 28 19.800229 -05 43 45.36629
 2018-Aug-02 06:19     00 28 19.860727 -05 43 45.23713
 2018-Aug-02 06:20     00 28 19.921208 -05 43 45.10798
 2018-Aug-02 06:21     00 28 19.981672 -05 43 44.97885
 2018-Aug-02 06:22     00 28 20.042120 -05 43 44.84974
 2018-Aug-02 06:23     00 28 20.102551 -05 43 44.72065
 2018-Aug-02 06:24     00 28 20.162965 -05 43 44.59157
 2018-Aug-02 06:25     00 28 20.223363 -05 43 44.46251
 2018-Aug-02 06:26     00 28 20.283744 -05 43 44.33346
 2018-Aug-02 06:27     00 28 20.344108 -05 43 44.20443
 2018-Aug-02 06:28     00 28 20.404455 -05 43 44.07542
 2018-Aug-02 06:29     00 28 20.464785 -05 43 43.94642
 2018-Aug-02 06:30     00 28 20.525099 -05 43 43.81744
 2018-Aug-02 06:31     00 28 20.585395 -05 43 43.68847
 2018-Aug-02 06:32     00 28 20.645674 -05 43 43.55952
 2018-Aug-02 06:33     00 28 20.705937 -05 43 43.43058
 2018-Aug-02 06:34     00 28 20.766182 -05 43 43.30166
 2018-Aug-02 06:35     00 28 20.826410 -05 43 43.17276
 2018-Aug-02 06:36     00 28 20.886621 -05 43 43.04387
 2018-Aug-02 06:37     00 28 20.946815 -05 43 42.91499
 2018-Aug-02 06:38     00 28 21.006991 -05 43 42.78614
 2018-Aug-02 06:39     00 28 21.067151 -05 43 42.65729
 2018-Aug-02 06:40     00 28 21.127293 -05 43 42.52846
 2018-Aug-02 06:41     00 28 21.187418 -05 43 42.39965
 2018-Aug-02 06:42     00 28 21.247526 -05 43 42.27085
 2018-Aug-02 06:43     00 28 21.307616 -05 43 42.14206
 2018-Aug-02 06:44     00 28 21.367689 -05 43 42.01329
 2018-Aug-02 06:45     00 28 21.427744 -05 43 41.88453
 2018-Aug-02 06:46     00 28 21.487782 -05 43 41.75579
 2018-Aug-02 06:47     00 28 21.547803 -05 43 41.62706
 2018-Aug-02 06:48     00 28 21.607806 -05 43 41.49835
 2018-Aug-02 06:49     00 28 21.667791 -05 43 41.36964
 2018-Aug-02 06:50     00 28 21.727759 -05 43 41.24096
 2018-Aug-02 06:51     00 28 21.787710 -05 43 41.11228
 2018-Aug-02 06:52     00 28 21.847642 -05 43 40.98362
 2018-Aug-02 06:53     00 28 21.907558 -05 43 40.85497
 2018-Aug-02 06:54     00 28 21.967455 -05 43 40.72634
 2018-Aug-02 06:55     00 28 22.027335 -05 43 40.59772
 2018-Aug-02 06:56     00 28 22.087197 -05 43 40.46911
 2018-Aug-02 06:57     00 28 22.147042 -05 43 40.34052
 2018-Aug-02 06:58     00 28 22.206868 -05 43 40.21194
 2018-Aug-02 06:59     00 28 22.266677 -05 43 40.08337
 2018-Aug-02 07:00     00 28 22.326468 -05 43 39.95481
 2018-Aug-02 07:01     00 28 22.386241 -05 43 39.82627
 2018-Aug-02 07:02     00 28 22.445997 -05 43 39.69773
 2018-Aug-02 07:03     00 28 22.505734 -05 43 39.56921
 2018-Aug-02 07:04     00 28 22.565454 -05 43 39.44071
 2018-Aug-02 07:05     00 28 22.625155 -05 43 39.31221
 2018-Aug-02 07:06     00 28 22.684839 -05 43 39.18373
 2018-Aug-02 07:07     00 28 22.744505 -05 43 39.05526
 2018-Aug-02 07:08     00 28 22.804153 -05 43 38.92680
 2018-Aug-02 07:09     00 28 22.863782 -05 43 38.79835
 2018-Aug-02 07:10     00 28 22.923394 -05 43 38.66991
